NORAD_CAT_ID,OBJECT_NAME,OBJECT_TYPE,EPOCH,MEAN_MOTION,ECCENTRICITY,INCLINATION,RA_OF_ASC_NODE,ARG_OF_PERICENTER,MEAN_ANOMALY,BSTAR,MEAN_MOTION_DOT,MEAN_MOTION_DDOT,TLE_LINE0,TLE_LINE1,TLE_LINE2,SEMIMAJOR_AXIS,PERIOD,APOGEE,PERIGEE,DECAYED
52842.0,STARLINK-4046,PAYLOAD,2024-01-22 22:41:24,15.08839336,0.0001387,53.2163,280.9821,99.1751,260.9398,9.8859e-06,-1.31e-06,0.0,0 STARLINK-4046,1 52842U 22062N   24022.94542313 -.00000131  00000-0  98859-5 0  9994,2 52842  53.2163 280.9821 0001387  99.1751 260.9398 15.08839336 88520,6917.882,95.438,540.707,538.788,0.0
52842.0,STARLINK-4046,PAYLOAD,2024-01-23 00:16:48,15.08817667,0.000167,53.2171,280.685,107.1263,252.9912,0.00069211,0.00010737,0.0,0 STARLINK-4046,1 52842U 22062N   24023.01167408  .00010737  00000-0  69211-3 0  9991,2 52842  53.2171 280.6850 0001670 107.1263 252.9912 15.08817667 89023,6917.949,95.439,540.969,538.658,0.0
52842.0,STARLINK-4046,PAYLOAD,2024-01-23 22:32:11,15.08846046,0.0001536,53.2164,276.5217,104.1147,256.0016,0.00015972,2.255e-05,0.0,0 STARLINK-4046,1 52842U 22062N   24023.93901895  .00002255  00000-0  15972-3 0  9999,2 52842  53.2164 276.5217 0001536 104.1147 256.0016 15.08846046 88678,6917.862,95.437,540.789,538.664,0.0
52842.0,STARLINK-4046,PAYLOAD,2024-01-24 00:07:35,15.08829242,0.0001602,53.2165,276.2251,93.8974,266.2202,0.00079762,0.00012425,0.0,0 STARLINK-4046,1 52842U 22062N   24024.00526953  .00012425  00000-0  79762-3 0  9993,2 52842  53.2165 276.2251 0001602  93.8974 266.2202 15.08829242 88680,6917.913,95.438,540.887,538.67,0.0
52842.0,STARLINK-4046,PAYLOAD,2024-01-24 22:22:58,15.08850382,0.0001903,53.2166,272.0607,65.6696,294.4495,0.0001608,2.273e-05,0.0,0 STARLINK-4046,1 52842U 22062N   24024.93261728  .00002273  00000-0  16080-3 0  9995,2 52842  53.2166 272.0607 0001903  65.6696 294.4495 15.08850382 88824,6917.849,95.437,541.03,538.397,0.0
52842.0,STARLINK-4046,PAYLOAD,2024-01-24 23:58:21,15.08854254,0.0001865,53.2166,271.7627,74.3718,285.748,0.00020948,3.049e-05,0.0,0 STARLINK-4046,1 52842U 22062N   24024.99885449  .00003049  00000-0  20948-3 0  9993,2 52842  53.2166 271.7627 0001865  74.3718 285.7480 15.08854254 89326,6917.837,95.437,540.992,538.412,0.0
52842.0,STARLINK-4046,PAYLOAD,2024-01-25 22:13:45,15.08840215,0.0001469,53.2162,267.5981,102.3021,257.8135,-5.3669e-05,-1.142e-05,0.0,0 STARLINK-4046,1 52842U 22062N   24025.92621872 -.00001142  00000-0 -53669-4 0  9996,2 52842  53.2162 267.5981 0001469 102.3021 257.8135 15.08840215 88976,6917.88,95.438,540.761,538.728,0.0
52842.0,STARLINK-4046,PAYLOAD,2024-01-25 23:49:08,15.08838027,0.0001365,53.2152,267.3009,109.9591,250.1548,-9.4887e-05,-1.798e-05,0.0,0 STARLINK-4046,1 52842U 22062N   24025.99245890 -.00001798  00000-0 -94887-4 0  9999,2 52842  53.2152 267.3009 0001365 109.9591 250.1548 15.08838027 89472,6917.886,95.438,540.696,538.807,0.0
52842.0,STARLINK-4046,PAYLOAD,2024-01-26 22:04:32,15.08834391,0.000123,53.2155,263.1399,74.6022,285.5106,0.0002243,3.283e-05,0.0,0 STARLINK-4046,1 52842U 22062N   24026.91982251  .00003283  00000-0  22430-3 0  9994,2 52842  53.2155 263.1399 0001230  74.6022 285.5106 15.08834391 89123,6917.898,95.438,540.613,538.912,0.0
52842.0,STARLINK-4046,PAYLOAD,2024-01-27 20:19:56,15.08841847,0.0001333,53.2161,258.9737,85.6417,274.4727,0.00019129,2.758e-05,0.0,0 STARLINK-4046,1 52842U 22062N   24027.84718043  .00002758  00000-0  19129-3 0  9990,2 52842  53.2161 258.9737 0001333  85.6417 274.4727 15.08841847 89751,6917.875,95.437,540.662,538.818,0.0
52842.0,STARLINK-4046,PAYLOAD,2024-01-27 21:55:19,15.08841444,0.0001356,53.2162,258.6756,84.9187,275.196,0.00018558,2.667e-05,0.0,0 STARLINK-4046,1 52842U 22062N   24027.91342013  .00002667  00000-0  18558-3 0  9992,2 52842  53.2162 258.6756 0001356  84.9187 275.1960 15.08841444 89278,6917.876,95.437,540.679,538.803,0.0
52842.0,STARLINK-4046,PAYLOAD,2024-01-28 01:06:05,15.08843926,0.0001367,53.215,258.0835,85.5171,274.5977,0.0002289,3.357e-05,0.0,0 STARLINK-4046,1 52842U 22062N   24028.04590152  .00003357  00000-0  22890-3 0  9997,2 52842  53.2150 258.0835 0001367  85.5171 274.5977 15.08843926 89299,6917.868,95.437,540.679,538.788,0.0
52842.0,STARLINK-4046,PAYLOAD,2024-01-28 20:10:44,15.08834449,0.0001553,53.2171,254.5106,105.4608,254.6556,1.7454e-06,-2.6e-06,0.0,0 STARLINK-4046,1 52842U 22062N   24028.84079026 -.00000260  00000-0  17454-5 0  9990,2 52842  53.2171 254.5106 0001553 105.4608 254.6556 15.08834449 89908,6917.897,95.438,540.837,538.688,0.0
52842.0,STARLINK-4046,PAYLOAD,2024-01-28 21:46:07,15.08832775,0.0001469,53.2169,254.2136,100.1715,259.9443,-2.0714e-05,-6.18e-06,0.0,0 STARLINK-4046,1 52842U 22062N   24028.90703186 -.00000618  00000-0 -20714-4 0  9998,2 52842  53.2169 254.2136 0001469 100.1715 259.9443 15.08832775 89422,6917.902,95.438,540.784,538.751,0.0
52842.0,STARLINK-4046,PAYLOAD,2024-01-29 00:56:53,15.08831403,0.0001527,53.2171,253.6202,103.6191,256.4971,-3.542e-05,-8.52e-06,0.0,0 STARLINK-4046,1 52842U 22062N   24029.03951337 -.00000852  00000-0 -35420-4 0  9996,2 52842  53.2171 253.6202 0001527 103.6191 256.4971 15.08831403 89440,6917.907,95.438,540.828,538.715,0.0
52842.0,STARLINK-4046,PAYLOAD,2024-01-30 00:47:39,15.08850991,0.0001458,53.2166,249.1631,117.6897,242.4244,9.6291e-05,1.245e-05,0.0,0 STARLINK-4046,1 52842U 22062N   24030.03309536  .00001245  00000-0  96291-4 0  9994,2 52842  53.2166 249.1631 0001458 117.6897 242.4244 15.08850991 90084,6917.847,95.437,540.72,538.703,0.0
52842.0,STARLINK-4046,PAYLOAD,2024-01-30 19:52:18,15.08830584,0.0001376,53.2166,245.597,109.2769,250.8372,6.3518e-05,7.23e-06,0.0,0 STARLINK-4046,1 52842U 22062N   24030.82799077  .00000723  00000-0  63518-4 0  9990,2 52842  53.2166 245.5970 0001376 109.2769 250.8372 15.08830584 90209,6917.909,95.438,540.726,538.822,0.0
52842.0,STARLINK-4046,PAYLOAD,2024-01-31 13:21:32,15.0883868,0.0001661,53.2168,242.3196,119.9907,240.125,-3.8008e-05,-8.93e-06,0.0,0 STARLINK-4046,1 52842U 22062N   24031.55662980 -.00000893  00000-0 -38008-4 0  9999,2 52842  53.2168 242.3196 0001661 119.9907 240.1250 15.08838680 89823,6917.884,95.438,540.898,538.6,0.0
52842.0,STARLINK-4046,PAYLOAD,2024-01-31 22:53:51,15.08834095,0.0001212,53.2158,240.5393,95.8414,264.2716,7.1262e-05,8.46e-06,0.0,0 STARLINK-4046,1 52842U 22062N   24031.95406929  .00000846  00000-0  71262-4 0  9997,2 52842  53.2158 240.5393 0001212  95.8414 264.2716 15.08834095 90370,6917.898,95.438,540.602,538.925,0.0
52842.0,STARLINK-4046,PAYLOAD,2024-02-01 13:12:20,15.08834216,0.0001217,53.2158,237.8633,94.9305,265.1826,6.2425e-05,7.06e-06,0.0,0 STARLINK-4046,1 52842U 22062N   24032.55023208  .00000706  00000-0  62425-4 0  9995,2 52842  53.2158 237.8633 0001217  94.9305 265.1826 15.08834216 89971,6917.898,95.438,540.605,538.921,0.0
52842.0,STARLINK-4046,PAYLOAD,2024-02-01 17:58:29,15.08836187,0.0001234,53.2162,236.9721,90.9828,269.1305,6.6943e-05,7.78e-06,0.0,0 STARLINK-4046,1 52842U 22062N   24032.74895160  .00000778  00000-0  66943-4 0  9998,2 52842  53.2162 236.9721 0001234  90.9828 269.1305 15.08836187 90000,6917.892,95.438,540.611,538.903,0.0
52842.0,STARLINK-4046,PAYLOAD,2024-02-02 13:03:07,15.08836929,0.0001269,53.2163,233.4037,88.8494,271.2644,6.3167e-05,7.17e-06,0.0,0 STARLINK-4046,1 52842U 22062N   24033.54383351  .00000717  00000-0  63167-4 0  9999,2 52842  53.2163 233.4037 0001269  88.8494 271.2644 15.08836929 90123,6917.89,95.438,540.633,538.877,0.0
52842.0,STARLINK-4046,PAYLOAD,2024-02-02 19:24:39,15.08836812,0.0001265,53.2163,232.2141,88.3409,271.7728,5.7101e-05,6.21e-06,0.0,0 STARLINK-4046,1 52842U 22062N   24033.80879446  .00000621  00000-0  57101-4 0  9998,2 52842  53.2163 232.2141 0001265  88.3409 271.7728 15.08836812 90650,6917.89,95.438,540.63,538.88,0.0
52842.0,STARLINK-4046,PAYLOAD,2024-02-03 19:15:27,15.08836376,0.0001142,53.2158,227.7535,85.6378,274.4744,2.8918e-05,1.72e-06,0.0,0 STARLINK-4046,1 52842U 22062N   24034.80239868  .00000172  00000-0  28918-4 0  9992,2 52842  53.2158 227.7535 0001142  85.6378 274.4744 15.08836376 90315,6917.891,95.438,540.546,538.966,0.0
52842.0,STARLINK-4046,PAYLOAD,2024-02-04 12:44:41,15.08842281,0.0001172,53.2162,224.4832,81.7323,278.3802,0.0001172,1.578e-05,0.0,0 STARLINK-4046,1 52842U 22062N   24035.53103293  .00001578  00000-0  11720-3 0  9998,2 52842  53.2162 224.4832 0001172  81.7323 278.3802 15.08842281 90910,6917.873,95.437,540.549,538.928,0.0
52842.0,STARLINK-4046,PAYLOAD,2024-02-04 19:06:13,15.08845789,0.0001215,53.2166,223.2936,84.5227,275.5903,0.00014098,1.957e-05,0.0,0 STARLINK-4046,1 52842U 22062N   24035.79599020  .00001957  00000-0  14098-3 0  9995,2 52842  53.2166 223.2936 0001215  84.5227 275.5903 15.08845789 90465,6917.863,95.437,540.568,538.887,0.0
52842.0,STARLINK-4046,PAYLOAD,2024-02-05 18:57:00,15.08850205,0.0001334,53.2173,218.8329,89.1954,270.9191,0.00010355,1.361e-05,0.0,0 STARLINK-4046,1 52842U 22062N   24036.78958707  .00001361  00000-0  10355-3 0  9997,2 52842  53.2173 218.8329 0001334  89.1954 270.9191 15.08850205 91108,6917.849,95.437,540.637,538.791,0.0
52842.0,STARLINK-4046,PAYLOAD,2024-02-06 12:26:15,15.08839394,0.0001384,53.2175,215.5625,102.0939,258.0209,-1.7031e-05,-5.59e-06,0.0,0 STARLINK-4046,1 52842U 22062N   24037.51823651 -.00000559  00000-0 -17031-4 0  9997,2 52842  53.2175 215.5625 0001384 102.0939 258.0209 15.08839394 91211,6917.882,95.438,540.705,538.79,0.0
52842.0,STARLINK-4046,PAYLOAD,2024-02-06 17:12:25,15.08835568,0.0001377,53.2168,214.6687,103.8765,256.238,-6.1553e-05,-1.267e-05,0.0,0 STARLINK-4046,1 52842U 22062N   24037.71695989 -.00001267  00000-0 -61553-4 0  9995,2 52842  53.2168 214.6687 0001377 103.8765 256.2380 15.08835568 90756,6917.894,95.438,540.712,538.806,0.0
52842.0,STARLINK-4046,PAYLOAD,2024-02-07 18:38:34,15.08849185,0.0001304,53.2165,209.9126,104.9242,255.1895,-1.8185e-05,-5.77e-06,0.0,0 STARLINK-4046,1 52842U 22062N   24038.77679200 -.00000577  00000-0 -18185-4 0  9996,2 52842  53.2165 209.9126 0001304 104.9242 255.1895 15.08849185 91402,6917.852,95.437,540.619,538.815,0.0
